NORAD_CAT_ID,OBJECT_NAME,OBJECT_TYPE,EPOCH,MEAN_MOTION,ECCENTRICITY,INCLINATION,RA_OF_ASC_NODE,ARG_OF_PERICENTER,MEAN_ANOMALY,BSTAR,MEAN_MOTION_DOT,MEAN_MOTION_DDOT,TLE_LINE0,TLE_LINE1,TLE_LINE2,SEMIMAJOR_AXIS,PERIOD,APOGEE,PERIGEE,DECAYED
54098.0,STARLINK-5217,PAYLOAD,2023-11-09 00:05:42,15.08839999,0.0001479,53.2169,197.1209,101.0539,259.0619,0.00099546,0.0001559,0.0,0 STARLINK-5217,1 54098U 22136AZ  23313.00395893  .00015590  00000-0  99546-3 0  9995,2 54098  53.2169 197.1209 0001479 101.0539 259.0619 15.08839999 58885,6917.88,95.438,540.769,538.722,0.0
54098.0,STARLINK-5217,PAYLOAD,2023-11-09 22:21:05,15.08850219,0.000159,53.2177,192.9537,98.3972,261.7201,0.0002817,4.199e-05,0.0,0 STARLINK-5217,1 54098U 22136AZ  23313.93131497  .00004199  00000-0  28170-3 0  9993,2 54098  53.2177 192.9537 0001590  98.3972 261.7201 15.08850219 58553,6917.849,95.437,540.814,538.614,0.0
54098.0,STARLINK-5217,PAYLOAD,2023-11-10 01:31:51,15.08851788,0.0001595,53.2177,192.3576,96.8957,263.2216,0.00027407,4.078e-05,0.0,0 STARLINK-5217,1 54098U 22136AZ  23314.06379329  .00004078  00000-0  27407-3 0  9994,2 54098  53.2177 192.3576 0001595  96.8957 263.2216 15.08851788 59041,6917.844,95.437,540.813,538.606,0.0
54098.0,STARLINK-5217,PAYLOAD,2023-11-10 22:11:51,15.08850445,0.0001772,53.2181,188.4898,126.727,233.3885,-0.00011877,-2.178e-05,0.0,0 STARLINK-5217,1 54098U 22136AZ  23314.92490706 -.00002178  00000-0 -11877-3 0  9997,2 54098  53.2181 188.4898 0001772 126.7270 233.3885 15.08850445 58708,6917.848,95.437,540.939,538.488,0.0
54098.0,STARLINK-5217,PAYLOAD,2023-11-11 01:22:38,15.08849634,0.0001745,53.2173,187.8965,114.3191,245.7984,-0.00017918,-3.139e-05,0.0,0 STARLINK-5217,1 54098U 22136AZ  23315.05738710 -.00003139  00000-0 -17918-3 0  9992,2 54098  53.2173 187.8965 0001745 114.3191 245.7984 15.08849634 59191,6917.851,95.437,540.923,538.509,0.0
54098.0,STARLINK-5217,PAYLOAD,2023-11-11 09:19:33,15.08851805,0.0001572,53.218,186.4131,98.0582,262.0589,-9.9691e-07,-3.04e-06,0.0,0 STARLINK-5217,1 54098U 22136AZ  23315.38858683 -.00000304  00000-0 -99691-6 0  9992,2 54098  53.2180 186.4131 0001572  98.0582 262.0589 15.08851805 58778,6917.844,95.437,540.797,538.622,0.0
54098.0,STARLINK-5217,PAYLOAD,2023-11-11 22:02:38,15.08853004,0.0001441,53.2178,184.0341,103.6096,256.5057,-3.5728e-05,-8.57e-06,0.0,0 STARLINK-5217,1 54098U 22136AZ  23315.91850407 -.00000857  00000-0 -35728-4 0  9999,2 54098  53.2178 184.0341 0001441 103.6096 256.5057 15.08853004 58850,6917.841,95.437,540.703,538.709,0.0
54098.0,STARLINK-5217,PAYLOAD,2023-11-12 18:42:39,15.08841236,0.0001419,53.2173,180.1694,99.8273,260.2879,4.3532e-05,4.05e-06,0.0,0 STARLINK-5217,1 54098U 22136AZ  23316.77962882  .00000405  00000-0  43532-4 0  9994,2 54098  53.2173 180.1694 0001419  99.8273 260.2879 15.08841236 59456,6917.877,95.437,540.723,538.76,0.0
54098.0,STARLINK-5217,PAYLOAD,2023-11-12 21:53:26,15.08840561,0.0001271,53.2174,179.577,90.5393,269.5745,4.7723e-05,4.72e-06,0.0,0 STARLINK-5217,1 54098U 22136AZ  23316.91210902  .00000472  00000-0  47723-4 0  9999,2 54098  53.2174 179.5770 0001271  90.5393 269.5745 15.08840561 59006,6917.879,95.438,540.623,538.864,0.0
54098.0,STARLINK-5217,PAYLOAD,2023-11-13 07:25:45,15.08838572,0.0001295,53.2171,177.7924,88.9131,271.201,7.7677e-06,-1.64e-06,0.0,0 STARLINK-5217,1 54098U 22136AZ  23317.30955118 -.00000164  00000-0  77677-5 0  9999,2 54098  53.2171 177.7924 0001295  88.9131 271.2010 15.08838572 59061,6917.885,95.438,540.646,538.854,0.0
54098.0,STARLINK-5217,PAYLOAD,2023-11-13 21:44:13,15.08844452,0.0001602,53.2166,175.1149,90.1136,270.004,-4.2172e-05,-9.59e-06,0.0,0 STARLINK-5217,1 54098U 22136AZ  23317.90570876 -.00000959  00000-0 -42172-4 0  9993,2 54098  53.2166 175.1149 0001602  90.1136 270.0040 15.08844452 59152,6917.867,95.437,540.84,538.624,0.0
54098.0,STARLINK-5217,PAYLOAD,2023-11-14 15:13:28,15.08832958,0.000138,53.2177,171.8442,85.184,274.931,7.7029e-06,-1.65e-06,0.0,0 STARLINK-5217,1 54098U 22136AZ  23318.63435609 -.00000165  00000-0  77029-5 0  9996,2 54098  53.2177 171.8442 0001380  85.1840 274.9310 15.08832958 59265,6917.902,95.438,540.722,538.812,0.0
54098.0,STARLINK-5217,PAYLOAD,2023-11-14 16:48:51,15.0883256,0.0001364,53.2173,171.5468,85.0306,275.0842,3.5664e-06,-2.31e-06,0.0,0 STARLINK-5217,1 54098U 22136AZ  23318.70059653 -.00000231  00000-0  35664-5 0  9998,2 54098  53.2173 171.5468 0001364  85.0306 275.0842 15.08832560 59748,6917.903,95.438,540.712,538.825,0.0
54098.0,STARLINK-5217,PAYLOAD,2023-11-14 21:35:00,15.08837467,0.0001359,53.2161,170.6558,94.0315,266.0832,5.8547e-05,6.44e-06,0.0,0 STARLINK-5217,1 54098U 22136AZ  23318.89931202  .00000644  00000-0  58547-4 0  9998,2 54098  53.2161 170.6558 0001359  94.0315 266.0832 15.08837467 59301,6917.888,95.438,540.693,538.813,0.0
54098.0,STARLINK-5217,PAYLOAD,2023-11-15 23:01:10,15.08864235,0.0001075,53.2166,165.8981,95.3892,264.7223,-0.00020363,-3.529e-05,0.0,0 STARLINK-5217,1 54098U 22136AZ  23319.95914471 -.00003529  00000-0 -20363-3 0  9996,2 54098  53.2166 165.8981 0001075  95.3892 264.7223 15.08864235 59932,6917.806,95.436,540.415,538.928,0.0
54098.0,STARLINK-5217,PAYLOAD,2023-11-16 19:41:11,15.08837044,0.0001299,53.2162,162.0326,87.6631,272.451,8.2071e-05,1.018e-05,0.0,0 STARLINK-5217,1 54098U 22136AZ  23320.82027260  .00001018  00000-0  82071-4 0  9999,2 54098  53.2162 162.0326 0001299  87.6631 272.4510 15.08837044 60062,6917.889,95.438,540.653,538.856,0.0
54098.0,STARLINK-5217,PAYLOAD,2023-11-17 13:10:25,15.0883907,0.0001362,53.2163,158.7609,87.3573,272.7575,1.4261e-05,-6.1e-07,0.0,0 STARLINK-5217,1 54098U 22136AZ  23321.54891155 -.00000061  00000-0  14261-4 0  9995,2 54098  53.2163 158.7609 0001362  87.3573 272.7575 15.08839070 59706,6917.883,95.438,540.69,538.806,0.0
54098.0,STARLINK-5217,PAYLOAD,2023-11-17 19:31:58,15.08839304,0.0001491,53.2144,157.5707,91.6352,268.4811,3.4542e-05,2.62e-06,0.0,0 STARLINK-5217,1 54098U 22136AZ  23321.81387177  .00000262  00000-0  34542-4 0  9995,2 54098  53.2144 157.5707 0001491  91.6352 268.4811 15.08839304 59746,6917.883,95.438,540.779,538.716,0.0
54098.0,STARLINK-5217,PAYLOAD,2023-11-18 13:01:13,15.08837867,0.000157,53.2139,154.2982,100.3313,259.7856,3.8233e-05,3.2e-06,0.0,0 STARLINK-5217,1 54098U 22136AZ  23322.54251262  .00000320  00000-0  38233-4 0  9997,2 54098  53.2139 154.2982 0001570 100.3313 259.7856 15.08837867 60322,6917.887,95.438,540.838,538.666,0.0
54098.0,STARLINK-5217,PAYLOAD,2023-11-18 19:22:45,15.08838171,0.0001519,53.2144,153.1102,91.0737,269.043,3.6973e-05,3e-06,0.0,0 STARLINK-5217,1 54098U 22136AZ  23322.80747299  .00000300  00000-0  36973-4 0  9993,2 54098  53.2144 153.1102 0001519  91.0737 269.0430 15.08838171 59890,6917.886,95.438,540.802,538.7,0.0
54098.0,STARLINK-5217,PAYLOAD,2023-11-19 12:51:59,15.08841063,0.0001114,53.2164,149.8403,81.8882,278.2237,6.7245e-05,7.83e-06,0.0,0 STARLINK-5217,1 54098U 22136AZ  23323.53611029  .00000783  00000-0  67245-4 0  9996,2 54098  53.2164 149.8403 0001114  81.8882 278.2237 15.08841063 60003,6917.877,95.437,540.513,538.971,0.0
54098.0,STARLINK-5217,PAYLOAD,2023-11-19 19:13:32,15.08843756,0.0001354,53.2167,148.6512,87.164,272.9507,8.6306e-05,1.086e-05,0.0,0 STARLINK-5217,1 54098U 22136AZ  23323.80106788  .00001086  00000-0  86306-4 0  9993,2 54098  53.2167 148.6512 0001354  87.1640 272.9507 15.08843756 60519,6917.869,95.437,540.671,538.797,0.0
54098.0,STARLINK-5217,PAYLOAD,2023-11-19 22:24:18,15.08843949,0.0001394,53.2166,148.0564,87.2844,272.8308,8.3841e-05,1.047e-05,0.0,0 STARLINK-5217,1 54098U 22136AZ  23323.93354712  .00001047  00000-0  83841-4 0  9997,2 54098  53.2166 148.0564 0001394  87.2844 272.8308 15.08843949 60062,6917.868,95.437,540.698,538.769,0.0
54098.0,STARLINK-5217,PAYLOAD,2023-11-20 11:07:23,15.08839929,0.000145,53.2166,145.6772,88.2255,271.8903,4.3439e-05,4.03e-06,0.0,0 STARLINK-5217,1 54098U 22136AZ  23324.46347133  .00000403  00000-0  43439-4 0  9999,2 54098  53.2166 145.6772 0001450  88.2255 271.8903 15.08839929 60148,6917.881,95.438,540.749,538.743,0.0
54098.0,STARLINK-5217,PAYLOAD,2023-11-20 19:04:19,15.08841184,0.0001433,53.2169,144.1901,87.8572,272.2584,4.5521e-05,4.37e-06,0.0,0 STARLINK-5217,1 54098U 22136AZ  23324.79467061  .00000437  00000-0  45521-4 0  9999,2 54098  53.2169 144.1901 0001433  87.8572 272.2584 15.08841184 60660,6917.877,95.437,540.733,538.75,0.0
54098.0,STARLINK-5217,PAYLOAD,2023-11-21 10:58:11,15.08834946,0.0001521,53.2182,141.2182,90.4472,269.6694,-4.7856e-05,-1.049e-05,0.0,0 STARLINK-5217,1 54098U 22136AZ  23325.45707871 -.00001049  00000-0 -47856-4 0  9994,2 54098  53.2182 141.2182 0001521  90.4472 269.6694 15.08834946 60762,6917.896,95.438,540.813,538.709,0.0
54098.0,STARLINK-5217,PAYLOAD,2023-11-21 12:33:35,15.08826475,0.0001241,53.217,140.919,88.2787,271.8347,-0.00011925,-2.184e-05,0.0,0 STARLINK-5217,1 54098U 22136AZ  23325.52332629 -.00002184  00000-0 -11925-3 0  9995,2 54098  53.2170 140.9190 0001241  88.2787 271.8347 15.08826475 60305,6917.922,95.438,540.645,538.928,0.0
54098.0,STARLINK-5217,PAYLOAD,2023-11-21 18:55:08,15.08823968,0.0001423,53.2181,139.7308,91.5866,268.5289,-0.00012376,-2.256e-05,0.0,0 STARLINK-5217,1 54098U 22136AZ  23325.78829005 -.00002256  00000-0 -12376-3 0  9993,2 54098  53.2181 139.7308 0001423  91.5866 268.5289 15.08823968 60347,6917.929,95.439,540.779,538.81,0.0
54098.0,STARLINK-5217,PAYLOAD,2023-11-22 18:45:55,15.08833079,0.0001443,53.2187,135.2704,96.4353,263.6804,-2.4007e-06,-3.26e-06,0.0,0 STARLINK-5217,1 54098U 22136AZ  23326.78188862 -.00000326  00000-0 -24007-5 0  9995,2 54098  53.2187 135.2704 0001443  96.4353 263.6804 15.08833079 60962,6917.902,95.438,540.765,538.768,0.0
54098.0,STARLINK-5217,PAYLOAD,2023-11-23 10:39:44,15.08857644,0.0001447,53.2178,132.298,76.6634,283.4519,0.00025767,3.817e-05,0.0,0 STARLINK-5217,1 54098U 22136AZ  23327.44426284  .00003817  00000-0  25767-3 0  9990,2 54098  53.2178 132.2980 0001447  76.6634 283.4519 15.08857644 61060,6917.826,95.436,540.692,538.69,0.0
